[
    {
        "Altitude(m)": 612513.9023543332,
        "Argument of Periapsis(deg)": 0.0,
        "Eccentricity": 0.0,
        "Inclination(deg)": 60.0,
        "Latitude(deg)": -28.135868600923548,
        "Longitude(deg)": 57.91315222455636,
        "Mean Anomaly(deg)": -147.2727,
        "RAAN(deg)": 320.0,
        "Satellite Name": "Test1 1421",
        "Satellite Number": 1421,
        "Semi-Major Axis(m)": 6980739.136638005,
        "Time(s)": 0
    },
    {
        "Altitude(m)": 612708.2698470051,
        "Argument of Periapsis(deg)": 0.00010418945913296404,
        "Eccentricity": 0.0,
        "Inclination(deg)": 60.0,
        "Latitude(deg)": -28.647607331026773,
        "Longitude(deg)": 58.27038308679779,
        "Mean Anomaly(deg)": -146.65259385453814,
        "RAAN(deg)": 319.9995799508602,
        "Satellite Name": "Test1 1421",
        "Satellite Number": 1421,
        "Semi-Major Axis(m)": 6980739.136638005,
        "Time(s)": 10
    }
]